HAWK-2A                 
1 47505U 21006CW  26068.67946547  .00008113  00000+0  25431-3 0  9990
2 47505  97.2459 115.6184 0006450 187.1463 172.9689 15.33304498284242
STARLINK-35184          
1 65506U 25198Q   26068.87986465  .00029392  00000+0  10004-2 0  9993
2 65506  53.1599 269.7990 0001129  71.2330 288.8793 15.30206003 28653
